[{"ORDINAL":"3","COMMENT":"GENERATED VIA SPACETRACK.ORG API","ORIGINATOR":"JSPOC","NORAD_CAT_ID":"39626","OBJECT_NAME":"CZ-2C DEB","OBJECT_TYPE":"DEBRIS","CLASSIFICATION_TYPE":"U","INTLDES":"14014C","EPOCH":"2014-11-28 19:26:34","EPOCH_MICROSECONDS":"633247","MEAN_MOTION":"14.4903409","ECCENTRICITY":"0.0111425","INCLINATION":"98.0252","RA_OF_ASC_NODE":"15.1314","ARG_OF_PERICENTER":"200.6713","MEAN_ANOMALY":"158.9957","EPHEMERIS_TYPE":"0","ELEMENT_SET_NO":"153","REV_AT_EPOCH":"3511","BSTAR":"0.0016915","MEAN_MOTION_DOT":"6.906e-05","MEAN_MOTION_DDOT":"0","FILE":"1785256","TLE_LINE0":"0 CZ-2C DEB","TLE_LINE1":"1 39626U 14014C   14332.81012307  .00006906  00000-0  16915-2 0  1538","TLE_LINE2":"2 39626 098.0252 015.1314 0111425 200.6713 158.9957 14.49034090 35110","OBJECT_ID":"2014-014C","OBJECT_NUMBER":"39626"},{"ORDINAL":"4","COMMENT":"GENERATED VIA SPACETRACK.ORG API","ORIGINATOR":"JSPOC","NORAD_CAT_ID":"39628","OBJECT_NAME":"CZ-2C DEB","OBJECT_TYPE":"DEBRIS","CLASSIFICATION_TYPE":"U","INTLDES":"14014E","EPOCH":"2014-11-28 19:18:11","EPOCH_MICROSECONDS":"780928","MEAN_MOTION":"14.48957694","ECCENTRICITY":"0.0110876","INCLINATION":"98.4703","RA_OF_ASC_NODE":"27.7","ARG_OF_PERICENTER":"208.4669","MEAN_ANOMALY":"151.044","EPHEMERIS_TYPE":"0","ELEMENT_SET_NO":"178","REV_AT_EPOCH":"3512","BSTAR":"0.0016271","MEAN_MOTION_DOT":"6.621e-05","MEAN_MOTION_DDOT":"0","FILE":"1785256","TLE_LINE0":"0 CZ-2C DEB","TLE_LINE1":"1 39628U 14014E   14332.80430302  .00006621  00000-0  16271-2 0  1784","TLE_LINE2":"2 39628 098.4703 027.7000 0110876 208.4669 151.0440 14.48957694 35128","OBJECT_ID":"2014-014E","OBJECT_NUMBER":"39628"},{"ORDINAL":"5","COMMENT":"GENERATED VIA SPACETRACK.ORG API","ORIGINATOR":"JSPOC","NORAD_CAT_ID":"40264","OBJECT_NAME":"CZ-2C DEB","OBJECT_TYPE":"DEBRIS","CLASSIFICATION_TYPE":"U","INTLDES":"14059D","EPOCH":"2014-11-28 18:57:10","EPOCH_MICROSECONDS":"674431","MEAN_MOTION":"14.46194432","ECCENTRICITY":"0.0116408","INCLINATION":"97.8842","RA_OF_ASC_NODE":"56.7837","ARG_OF_PERICENTER":"30.076","MEAN_ANOMALY":"330.7045","EPHEMERIS_TYPE":"0","ELEMENT_SET_NO":"41","REV_AT_EPOCH":"890","BSTAR":"0.0016186","MEAN_MOTION_DOT":"6.258e-05","MEAN_MOTION_DDOT":"0","FILE":"1785283","TLE_LINE0":"0 CZ-2C DEB","TLE_LINE1":"1 40264U 14059D   14332.78970688  .00006258  00000-0  16186-2 0   414","TLE_LINE2":"2 40264 097.8842 056.7837 0116408 030.0760 330.7045 14.46194432  8905","OBJECT_ID":"2014-059D","OBJECT_NUMBER":"40264"},{"ORDINAL":"3","COMMENT":"GENERATED VIA SPACETRACK.ORG API","ORIGINATOR":"JSPOC","NORAD_CAT_ID":"40078","OBJECT_NAME":"FREGAT DEB","OBJECT_TYPE":"DEBRIS","CLASSIFICATION_TYPE":"U","INTLDES":"14037K","EPOCH":"2014-11-28 18:36:12","EPOCH_MICROSECONDS":"174624","MEAN_MOTION":"14.51531333","ECCENTRICITY":"0.0139068","INCLINATION":"98.3643","RA_OF_ASC_NODE":"23.8342","ARG_OF_PERICENTER":"144.2707","MEAN_ANOMALY":"216.7895","EPHEMERIS_TYPE":"0","ELEMENT_SET_NO":"150","REV_AT_EPOCH":"2075","BSTAR":"0.00022089","MEAN_MOTION_DOT":"9.51e-06","MEAN_MOTION_DDOT":"0","FILE":"1785297","TLE_LINE0":"0 FREGAT DEB","TLE_LINE1":"1 40078U 14037K   14332.77514091  .00000951  00000-0  22089-3 0  1509","TLE_LINE2":"2 40078 098.3643 023.8342 0139068 144.2707 216.7895 14.51531333 20759","OBJECT_ID":"2014-037K","OBJECT_NUMBER":"40078"},{"ORDINAL":"4","COMMENT":"GENERATED VIA SPACETRACK.ORG API","ORIGINATOR":"JSPOC","NORAD_CAT_ID":"40048","OBJECT_NAME":"SL-24 DEB","OBJECT_TYPE":"DEBRIS","CLASSIFICATION_TYPE":"U","INTLDES":"14033AQ","EPOCH":"2014-11-28 16:46:53","EPOCH_MICROSECONDS":"487551","MEAN_MOTION":"14.99168494","ECCENTRICITY":"0.0040293","INCLINATION":"97.9812","RA_OF_ASC_NODE":"230.6116","ARG_OF_PERICENTER":"170.3736","MEAN_ANOMALY":"189.8153","EPHEMERIS_TYPE":"0","ELEMENT_SET_NO":"207","REV_AT_EPOCH":"2420","BSTAR":"0.0017561","MEAN_MOTION_DOT":"0.00021724","MEAN_MOTION_DDOT":"0","FILE":"1785292","TLE_LINE0":"0 SL-24 DEB","TLE_LINE1":"1 40048U 14033AQ  14332.69923018  .00021724  00000-0  17561-2 0  2078","TLE_LINE2":"2 40048 097.9812 230.6116 0040293 170.3736 189.8153 14.99168494 24206","OBJECT_ID":"2014-033AQ","OBJECT_NUMBER":"40048"},{"ORDINAL":"3","COMMENT":"GENERATED VIA SPACETRACK.ORG API","ORIGINATOR":"JSPOC","NORAD_CAT_ID":"40288","OBJECT_NAME":"CZ-2C DEB","OBJECT_TYPE":"DEBRIS","CLASSIFICATION_TYPE":"U","INTLDES":"14066C","EPOCH":"2014-11-28 13:52:44","EPOCH_MICROSECONDS":"456448","MEAN_MOTION":"14.18331857","ECCENTRICITY":"0.0193429","INCLINATION":"97.972","RA_OF_ASC_NODE":"83.6299","ARG_OF_PERICENTER":"76.4225","MEAN_ANOMALY":"285.8416","EPHEMERIS_TYPE":"0","ELEMENT_SET_NO":"39","REV_AT_EPOCH":"457","BSTAR":"0.00072383","MEAN_MOTION_DOT":"1.758e-05","MEAN_MOTION_DDOT":"0","FILE":"1785191","TLE_LINE0":"0 CZ-2C DEB","TLE_LINE1":"1 40288U 14066C   14332.57829232  .00001758  00000-0  72383-3 0   392","TLE_LINE2":"2 40288 097.9720 083.6299 0193429 076.4225 285.8416 14.18331857  4570","OBJECT_ID":"2014-066C","OBJECT_NUMBER":"40288"},{"ORDINAL":"5","COMMENT":"GENERATED VIA SPACETRACK.ORG API","ORIGINATOR":"JSPOC","NORAD_CAT_ID":"40114","OBJECT_NAME":"CZ-4C DEB","OBJECT_TYPE":"DEBRIS","CLASSIFICATION_TYPE":"U","INTLDES":"14047F","EPOCH":"2014-11-28 13:32:00","EPOCH_MICROSECONDS":"655007","MEAN_MOTION":"13.43547445","ECCENTRICITY":"0.0017459","INCLINATION":"63.4248","RA_OF_ASC_NODE":"66.7862","ARG_OF_PERICENTER":"24.3575","MEAN_ANOMALY":"335.8287","EPHEMERIS_TYPE":"0","ELEMENT_SET_NO":"76","REV_AT_EPOCH":"1496","BSTAR":"0","MEAN_MOTION_DOT":"-9e-07","MEAN_MOTION_DDOT":"0","FILE":"1785221","TLE_LINE0":"0 CZ-4C DEB","TLE_LINE1":"1 40114U 14047F   14332.56389647 -.00000090  00000-0  00000+0 0   762","TLE_LINE2":"2 40114 063.4248 066.7862 0017459 024.3575 335.8287 13.43547445 14962","OBJECT_ID":"2014-047F","OBJECT_NUMBER":"40114"},{"ORDINAL":"5","COMMENT":"GENERATED VIA SPACETRACK.ORG API","ORIGINATOR":"JSPOC","NORAD_CAT_ID":"40279","OBJECT_NAME":"BREEZE-M DEB (TANK)","OBJECT_TYPE":"DEBRIS","CLASSIFICATION_TYPE":"U","INTLDES":"14064C","EPOCH":"2014-11-28 03:27:21","EPOCH_MICROSECONDS":"435839","MEAN_MOTION":"2.14191502","ECCENTRICITY":"0.7359502","INCLINATION":"49.4135","RA_OF_ASC_NODE":"257.0312","ARG_OF_PERICENTER":"7.7924","MEAN_ANOMALY":"359.2045","EPHEMERIS_TYPE":"0","ELEMENT_SET_NO":"28","REV_AT_EPOCH":"80","BSTAR":"0.0028174","MEAN_MOTION_DOT":"2.116e-05","MEAN_MOTION_DDOT":"0","FILE":"1785185","TLE_LINE0":"0 BREEZE-M DEB (TANK)","TLE_LINE1":"1 40279U 14064C   14332.14399810  .00002116  00000-0  28174-2 0   282","TLE_LINE2":"2 40279 049.4135 257.0312 7359502 007.7924 359.2045 02.14191502   801","OBJECT_ID":"2014-064C","OBJECT_NUMBER":"40279"},{"ORDINAL":"4","COMMENT":"GENERATED VIA SPACETRACK.ORG API","ORIGINATOR":"JSPOC","NORAD_CAT_ID":"40290","OBJECT_NAME":"CZ-2C DEB","OBJECT_TYPE":"DEBRIS","CLASSIFICATION_TYPE":"U","INTLDES":"14066E","EPOCH":"2014-11-27 21:37:35","EPOCH_MICROSECONDS":"503103","MEAN_MOTION":"14.48898708","ECCENTRICITY":"0.0104388","INCLINATION":"97.9666","RA_OF_ASC_NODE":"84.4334","ARG_OF_PERICENTER":"128.402","MEAN_ANOMALY":"232.6602","EPHEMERIS_TYPE":"0","ELEMENT_SET_NO":"28","REV_AT_EPOCH":"458","BSTAR":"0.0015223","MEAN_MOTION_DOT":"6.134e-05","MEAN_MOTION_DDOT":"0","FILE":"1784875","TLE_LINE0":"0 CZ-2C DEB","TLE_LINE1":"1 40290U 14066E   14331.90110536  .00006134  00000-0  15223-2 0   281","TLE_LINE2":"2 40290 097.9666 084.4334 0104388 128.4020 232.6602 14.48898708  4582","OBJECT_ID":"2014-066E","OBJECT_NUMBER":"40290"},{"ORDINAL":"5","COMMENT":"GENERATED VIA SPACETRACK.ORG API","ORIGINATOR":"JSPOC","NORAD_CAT_ID":"40048","OBJECT_NAME":"SL-24 DEB","OBJECT_TYPE":"DEBRIS","CLASSIFICATION_TYPE":"U","INTLDES":"14033AQ","EPOCH":"2014-11-27 21:33:31","EPOCH_MICROSECONDS":"115520","MEAN_MOTION":"14.99138069","ECCENTRICITY":"0.0040446","INCLINATION":"97.9816","RA_OF_ASC_NODE":"229.7916","ARG_OF_PERICENTER":"173.0054","MEAN_ANOMALY":"187.1744","EPHEMERIS_TYPE":"0","ELEMENT_SET_NO":"206","REV_AT_EPOCH":"2408","BSTAR":"0.0018091","MEAN_MOTION_DOT":"0.0002237","MEAN_MOTION_DDOT":"0","FILE":"1785064","TLE_LINE0":"0 SL-24 DEB","TLE_LINE1":"1 40048U 14033AQ  14331.89827680  .00022370  00000-0  18091-2 0  2063","TLE_LINE2":"2 40048 097.9816 229.7916 0040446 173.0054 187.1744 14.99138069 24088","OBJECT_ID":"2014-033AQ","OBJECT_NUMBER":"40048"},{"ORDINAL":"4","COMMENT":"GENERATED VIA SPACETRACK.ORG API","ORIGINATOR":"JSPOC","NORAD_CAT_ID":"40289","OBJECT_NAME":"CZ-2C DEB","OBJECT_TYPE":"DEBRIS","CLASSIFICATION_TYPE":"U","INTLDES":"14066D","EPOCH":"2014-11-27 21:04:15","EPOCH_MICROSECONDS":"21695","MEAN_MOTION":"14.46804839","ECCENTRICITY":"0.0115058","INCLINATION":"98.4337","RA_OF_ASC_NODE":"85.9277","ARG_OF_PERICENTER":"127.5226","MEAN_ANOMALY":"233.6486","EPHEMERIS_TYPE":"0","ELEMENT_SET_NO":"42","REV_AT_EPOCH":"456","BSTAR":"0.0019614","MEAN_MOTION_DOT":"7.676e-05","MEAN_MOTION_DDOT":"0","FILE":"1784881","TLE_LINE0":"0 CZ-2C DEB","TLE_LINE1":"1 40289U 14066D   14331.87795164  .00007676  00000-0  19614-2 0   427","TLE_LINE2":"2 40289 098.4337 085.9277 0115058 127.5226 233.6486 14.46804839  4566","OBJECT_ID":"2014-066D","OBJECT_NUMBER":"40289"},{"ORDINAL":"5","COMMENT":"GENERATED VIA SPACETRACK.ORG API","ORIGINATOR":"JSPOC","NORAD_CAT_ID":"40266","OBJECT_NAME":"CZ-2C DEB","OBJECT_TYPE":"DEBRIS","CLASSIFICATION_TYPE":"U","INTLDES":"14059F","EPOCH":"2014-11-27 20:17:55","EPOCH_MICROSECONDS":"103424","MEAN_MOTION":"14.18878696","ECCENTRICITY":"0.0195604","INCLINATION":"98.3512","RA_OF_ASC_NODE":"56.5674","ARG_OF_PERICENTER":"352.7469","MEAN_ANOMALY":"7.0888","EPHEMERIS_TYPE":"0","ELEMENT_SET_NO":"36","REV_AT_EPOCH":"859","BSTAR":"0.0011996","MEAN_MOTION_DOT":"2.979e-05","MEAN_MOTION_DDOT":"0","FILE":"1784844","TLE_LINE0":"0 CZ-2C DEB","TLE_LINE1":"1 40266U 14059F   14331.84577666  .00002979  00000-0  11996-2 0   365","TLE_LINE2":"2 40266 098.3512 056.5674 0195604 352.7469 007.0888 14.18878696  8593","OBJECT_ID":"2014-059F","OBJECT_NUMBER":"40266"}]